[{"OBJECT_NAME":"SHIYAN-23 (SY-23)","OBJECT_ID":"2024-089A","EPOCH":"2026-03-09T17:48:57.331872","MEAN_MOTION":14.86904923,"ECCENTRICITY":0.0004099,"INCLINATION":97.778,"RA_OF_ASC_NODE":72.5746,"ARG_OF_PERICENTER":142.8703,"MEAN_ANOMALY":217.2797,"EPHEMERIS_TYPE":0,"CLASSIFICATION_TYPE":"U","NORAD_CAT_ID":59728,"ELEMENT_SET_NO":999,"REV_AT_EPOCH":9906,"BSTAR":9.2631e-5,"MEAN_MOTION_DOT":7.74e-6,"MEAN_MOTION_DDOT":0},{"OBJECT_NAME":"USA 57","OBJECT_ID":"1990-031B","EPOCH":"2026-03-09T23:09:57.966336","MEAN_MOTION":14.73121997,"ECCENTRICITY":0.00684729,"INCLINATION":89.8421,"RA_OF_ASC_NODE":266.6849,"ARG_OF_PERICENTER":50.3395,"MEAN_ANOMALY":310.3837,"EPHEMERIS_TYPE":0,"CLASSIFICATION_TYPE":"U","NORAD_CAT_ID":20561,"ELEMENT_SET_NO":999,"REV_AT_EPOCH":10057,"BSTAR":0.00011702227,"MEAN_MOTION_DOT":7.99e-6,"MEAN_MOTION_DDOT":0}]
